NORAD_CAT_ID,OBJECT_NAME,OBJECT_TYPE,EPOCH,MEAN_MOTION,ECCENTRICITY,INCLINATION,RA_OF_ASC_NODE,ARG_OF_PERICENTER,MEAN_ANOMALY,BSTAR,MEAN_MOTION_DOT,MEAN_MOTION_DDOT,TLE_LINE0,TLE_LINE1,TLE_LINE2,SEMIMAJOR_AXIS,PERIOD,APOGEE,PERIGEE,DECAYED
53818.0,STARLINK-4749,PAYLOAD,2023-01-11 11:44:36,15.08845539,0.0002607,53.2174,81.2931,28.7071,331.4065,6.4581e-05,7.400000000000001e-06,0.0,0 STARLINK-4749,1 53818U 22114A   23011.48931172  .00000740  00000-0  64581-4 0  9996,2 53818  53.2174  81.2931 0002607  28.7071 331.4065 15.08845539 18192,6917.863,95.437,541.5319999999998,537.925,0.0
53818.0,STARLINK-4749,PAYLOAD,2023-01-11 21:16:56,15.08835165,0.0002582,53.2187,79.5072,30.9298,329.1846,1.8573e-05,7e-08,0.0,0 STARLINK-4749,1 53818U 22114A   23011.88676124  .00000007  00000-0  18573-4 0  9999,2 53818  53.2187  79.5072 0002582  30.9298 329.1846 15.08835165 18892,6917.895,95.438,541.5459999999998,537.974,0.0
53818.0,STARLINK-4749,PAYLOAD,2023-01-12 14:46:10,15.08841159,0.0002324,53.2188,76.2362,24.1966,335.9134,6.8036e-05,7.95e-06,0.0,0 STARLINK-4749,1 53818U 22114A   23012.61539419  .00000795  00000-0  68036-4 0  9999,2 53818  53.2188  76.2362 0002324  24.1966 335.9134 15.08841159 18367,6917.877,95.437,541.35,538.134,0.0
53818.0,STARLINK-4749,PAYLOAD,2023-01-12 21:07:44,15.08821645,0.0002117,53.2185,75.0466,28.7008,331.4101,-0.00010126,-1.899e-05,0.0,0 STARLINK-4749,1 53818U 22114A   23012.88037407 -.00001899  00000-0 -10126-3 0  9992,2 53818  53.2185  75.0466 0002117  28.7008 331.4101 15.08821645 18401,6917.936,95.439,541.266,538.337,0.0
53818.0,STARLINK-4749,PAYLOAD,2023-01-13 11:26:11,15.08848884,0.0002043,53.2185,72.3699,38.4972,321.6166,-1.0991e-05,-4.63e-06,0.0,0 STARLINK-4749,1 53818U 22114A   23013.47651958 -.00000463  00000-0 -10991-4 0  9998,2 53818  53.2185  72.3699 0002043  38.4972 321.6166 15.08848884 18490,6917.853,95.437,541.132,538.305,0.0
53818.0,STARLINK-4749,PAYLOAD,2023-01-13 20:58:30,15.08841231,0.0002236,53.2188,70.5865,39.9962,320.1194,-6.703300000000001e-05,-1.355e-05,0.0,0 STARLINK-4749,1 53818U 22114A   23013.87396682 -.00001355  00000-0 -67033-4 0  9992,2 53818  53.2188  70.5865 0002236  39.9962 320.1194 15.08841231 19199,6917.877,95.437,541.288,538.195,0.0
53818.0,STARLINK-4749,PAYLOAD,2023-01-14 03:20:03,15.08833816,0.0001989,53.219,69.3985,37.2179,322.895,-1.5575e-06,-3.13e-06,0.0,0 STARLINK-4749,1 53818U 22114A   23014.13893096 -.00000313  00000-0 -15575-5 0  9991,2 53818  53.2190  69.3985 0001989  37.2179 322.8950 15.08833816 18598,6917.899,95.438,541.14,538.388,0.0
53818.0,STARLINK-4749,PAYLOAD,2023-01-15 09:32:23,15.088326,0.0002055,53.2174,63.748000000000005,56.2535,303.8653,0.00011924,1.6100000000000002e-05,0.0,0 STARLINK-4749,1 53818U 22114A   23015.39749623  .00001610  00000-0  11924-3 0  9997,2 53818  53.2174  63.7480 0002055  56.2535 303.8653 15.08832600 18780,6917.903,95.438,541.19,538.346,0.0
53818.0,STARLINK-4749,PAYLOAD,2023-01-15 20:40:05,15.08842087,0.0001878,53.2174,61.6664,66.6679,293.4511,4.2043e-05,3.81e-06,0.0,0 STARLINK-4749,1 53818U 22114A   23015.86117327  .00000381  00000-0  42043-4 0  9990,2 53818  53.2174  61.6664 0001878  66.6679 293.4511 15.08842087 19493,6917.874,95.437,541.038,538.44,0.0
53818.0,STARLINK-4749,PAYLOAD,2023-01-16 06:12:23,15.08847012,0.0001959,53.2183,59.8819,61.1838,298.9351,0.00018544,2.665e-05,0.0,0 STARLINK-4749,1 53818U 22114A   23016.25860681  .00002665  00000-0  18544-3 0  9997,2 53818  53.2183  59.8819 0001959  61.1838 298.9351 15.08847012 18912,6917.859,95.437,541.0790000000001,538.369,0.0
53818.0,STARLINK-4749,PAYLOAD,2023-01-16 12:33:55,15.08862139,0.0001735,53.2179,58.6921,62.5546,297.5622,0.00037717,5.723e-05,0.0,0 STARLINK-4749,1 53818U 22114A   23016.52356229  .00005723  00000-0  37717-3 0  9996,2 53818  53.2179  58.6921 0001735  62.5546 297.5622 15.08862139 19599,6917.813,95.436,540.878,538.477,0.0
53818.0,STARLINK-4749,PAYLOAD,2023-01-17 02:52:26,15.08811507,0.0001177,53.2201,56.0174,57.78,302.3306,-0.00014602,-2.609e-05,0.0,0 STARLINK-4749,1 53818U 22114A   23017.11975153 -.00002609  00000-0 -14602-3 0  9995,2 53818  53.2201  56.0174 0001177  57.7800 302.3306 15.08811507 19043,6917.967,95.439,540.6469999999999,539.018,0.0
53818.0,STARLINK-4749,PAYLOAD,2023-01-17 09:13:59,15.08814998,0.0001674,53.2177,54.8269,78.3323,281.7856,-0.00022406,-3.85e-05,0.0,0 STARLINK-4749,1 53818U 22114A   23017.38471363 -.00003850  00000-0 -22406-3 0  9998,2 53818  53.2177  54.8269 0001674  78.3323 281.7856 15.08814998 19729,6917.956999999999,95.439,540.98,538.664,0.0
53818.0,STARLINK-4749,PAYLOAD,2023-01-17 18:46:18,15.08824663,0.0001631999999999,53.2206,53.0435,81.4445,278.6732,-0.00012904,-2.34e-05,0.0,0 STARLINK-4749,1 53818U 22114A   23017.78215325 -.00002340  00000-0 -12904-3 0  9991,2 53818  53.2206  53.0435 0001632  81.4445 278.6732 15.08824663 19786,6917.927,95.439,540.9209999999999,538.663,0.0
53818.0,STARLINK-4749,PAYLOAD,2023-01-18 01:07:50,15.088289499999998,0.0001473,53.2202,51.8513,80.9263,279.1895,-7.422e-05,-1.469e-05,0.0,0 STARLINK-4749,1 53818U 22114A   23018.04711097 -.00001469  00000-0 -74220-4 0  9999,2 53818  53.2202  51.8513 0001473  80.9263 279.1895 15.08828950 19183,6917.914000000001,95.438,540.798,538.76,0.0
53818.0,STARLINK-4749,PAYLOAD,2023-01-18 09:04:45,15.08849686,0.0001607,53.2199,50.3689,79.7309,280.3864,0.00028066,4.183e-05,0.0,0 STARLINK-4749,1 53818U 22114A   23018.37830267  .00004183  00000-0  28066-3 0  9996,2 53818  53.2199  50.3689 0001607  79.7309 280.3864 15.08849686 19237,6917.851,95.437,540.827,538.604,0.0
53818.0,STARLINK-4749,PAYLOAD,2023-01-18 12:15:30,15.08858373,0.0001571,53.2191,49.771,77.9684,282.1484,0.00027579,4.106e-05,0.0,0 STARLINK-4749,1 53818U 22114A   23018.51077543  .00004106  00000-0  27579-3 0  9995,2 53818  53.2191  49.7710 0001571  77.9684 282.1484 15.08858373 19895,6917.8240000000005,95.436,540.776,538.602,0.0
53818.0,STARLINK-4749,PAYLOAD,2023-01-18 18:37:03,15.08861603,0.0001574,53.2192,48.5821,82.94200000000001,277.1751,0.00032865,4.949e-05,0.0,0 STARLINK-4749,1 53818U 22114A   23018.77573329  .00004949  00000-0  32865-3 0  9995,2 53818  53.2192  48.5821 0001574  82.9420 277.1751 15.08861603 19939,6917.814,95.436,540.768,538.59,0.0
53818.0,STARLINK-4749,PAYLOAD,2023-01-19 02:33:59,15.08846047,0.0001494,53.2179,47.0954,93.2711,266.8452,0.00052819,8.13e-05,0.0,0 STARLINK-4749,1 53818U 22114A   23019.10694287  .00008130  00000-0  52819-3 0  9997,2 53818  53.2179  47.0954 0001494  93.2711 266.8452 15.08846047 19347,6917.861999999999,95.437,540.76,538.693,0.0
53818.0,STARLINK-4749,PAYLOAD,2023-01-19 10:30:54,15.0886285,0.0001374,53.2182,45.609,90.055,270.06,0.00065151,0.00010102,0.0,0 STARLINK-4749,1 53818U 22114A   23019.43813281  .00010102  00000-0  65151-3 0  9995,2 53818  53.2182  45.6090 0001374  90.0550 270.0600 15.08862850 19396,6917.811,95.436,540.626,538.725,0.0
53818.0,STARLINK-4749,PAYLOAD,2023-01-19 18:27:50,15.08845157,0.0001831999999999,53.2191,44.123000000000005,94.6808,265.4394,-3.3361e-05,-8.19e-06,0.0,0 STARLINK-4749,1 53818U 22114A   23019.76933837 -.00000819  00000-0 -33361-4 0  9996,2 53818  53.2191  44.1230 0001832  94.6808 265.4394 15.08845157 19446,6917.865,95.437,540.997,538.462,0.0
53818.0,STARLINK-4749,PAYLOAD,2023-01-20 02:24:46,15.08833305,0.0001553,53.219,42.6367,106.7817,253.3346,-0.00033809,-5.664e-05,0.0,0 STARLINK-4749,1 53818U 22114A   23020.10054072 -.00005664  00000-0 -33809-3 0  9990,2 53818  53.2190  42.6367 0001553 106.7817 253.3346 15.08833305 19494,6917.901,95.438,540.84,538.692,0.0
53818.0,STARLINK-4749,PAYLOAD,2023-01-20 08:46:18,15.08842035,0.0001505,53.2187,41.4458,103.9748,256.1412,-0.00015432,-2.743e-05,0.0,0 STARLINK-4749,1 53818U 22114A   23020.36549745 -.00002743  00000-0 -15432-3 0  9991,2 53818  53.2187  41.4458 0001505 103.9748 256.1412 15.08842035 19537,6917.874,95.437,540.78,538.698,0.0
53818.0,STARLINK-4749,PAYLOAD,2023-01-21 07:01:43,15.08835867,0.0001330999999999,53.2176,37.2838,105.7447,254.3692,0.00036443,5.516e-05,0.0,0 STARLINK-4749,1 53818U 22114A   23021.29286428  .00005516  00000-0  36443-3 0  9994,2 53818  53.2176  37.2838 0001331 105.7447 254.3692 15.08835867 19673,6917.893,95.438,540.679,538.837,0.0
53818.0,STARLINK-4749,PAYLOAD,2023-01-21 10:12:29,15.08847366,0.0001460999999999,53.218,36.6885,104.686,255.4294,0.00045097,6.898e-05,0.0,0 STARLINK-4749,1 53818U 22114A   23021.42534127  .00006898  00000-0  45097-3 0  9990,2 53818  53.2180  36.6885 0001461 104.6860 255.4294 15.08847366 19693,6917.858,95.437,540.734,538.712,0.0
53818.0,STARLINK-4749,PAYLOAD,2023-01-22 06:52:30,15.088465300000005,0.0001458,53.2193,32.8202,111.8798,248.2349,0.0004591999999999,7.029e-05,0.0,0 STARLINK-4749,1 53818U 22114A   23022.28646389  .00007029  00000-0  45920-3 0  9991,2 53818  53.2193  32.8202 0001458 111.8798 248.2349 15.08846530 19822,6917.86,95.437,540.734,538.717,0.0
53818.0,STARLINK-4749,PAYLOAD,2023-01-22 18:00:12,15.08843611,0.0001163,53.2195,30.7399,94.4513,265.6612,0.00035031,5.292e-05,0.0,0 STARLINK-4749,1 53818U 22114A   23022.75014578  .00005292  00000-0  35031-3 0  9994,2 53818  53.2195  30.7399 0001163  94.4513 265.6612 15.08843611 19892,6917.869000000001,95.437,540.539,538.93,0.0
53818.0,STARLINK-4749,PAYLOAD,2023-01-23 06:43:18,15.08834814,0.0001328,53.2184,28.3638,74.8454,285.2685,0.00017047,2.426e-05,0.0,0 STARLINK-4749,1 53818U 22114A   23023.28007199  .00002426  00000-0  17047-3 0  9997,2 53818  53.2184  28.3638 0001328  74.8454 285.2685 15.08834814 19970,6917.896,95.438,540.68,538.8430000000001,0.0
53818.0,STARLINK-4749,PAYLOAD,2023-01-24 09:44:51,15.08862042,0.0001509,53.2184,23.3054,84.8677,275.2487,0.00098052,0.00015361,0.0,0 STARLINK-4749,1 53818U 22114A   23024.40614867  .00015361  00000-0  98052-3 0  9995,2 53818  53.2184  23.3054 0001509  84.8677 275.2487 15.08862042 20140,6917.813,95.436,540.722,538.634,0.0
